{
  "type": "FeatureCollection",
  "name": "Pune_Urban_Building_Footprints",
  "crs": {
    "type": "name",
    "properties": {
      "name": "urn:ogc:def:crs:OGC:1.3:CRS84"
    }
  },
  "metadata": {
    "source": "OpenStreetMap — Building Footprints",
    "region": "Pune, Maharashtra, India",
    "zone": "Kothrud / Shivaji Nagar Urban Cadastre",
    "datum": "WGS84 / EPSG:4326",
    "generatedFor": "TerraID 3D SIH Prototype"
  },
  "features": [
    {
      "type": "Feature",
      "id": "BLD-PUN-00027",
      "properties": {
        "buildingId": "BLD-PUN-00027",
        "name": "Emerald Heights Tower B",
        "building": "apartments",
        "height": 46.5,
        "heightSource": "Estimated / Demo",
        "buildingLevels": 14,
        "source": "OpenStreetMap — Building Footprints",
        "osmId": "way/892147101",
        "associatedPropertyId": "prop-pune-01",
        "isTarget": true
      },
      "geometry": {
        "type": "Polygon",
        "coordinates": [
          [
            [73.85645, 18.52022],
            [73.85695, 18.52022],
            [73.85695, 18.52058],
            [73.85645, 18.52058],
            [73.85645, 18.52022]
          ]
        ]
      }
    },
    {
      "type": "Feature",
      "id": "BLD-PUN-00028",
      "properties": {
        "buildingId": "BLD-PUN-00028",
        "name": "Emerald Heights Tower A",
        "building": "apartments",
        "height": 43.5,
        "heightSource": "Estimated / Demo",
        "buildingLevels": 13,
        "source": "OpenStreetMap — Building Footprints",
        "osmId": "way/892147102"
      },
      "geometry": {
        "type": "Polygon",
        "coordinates": [
          [
            [73.85710, 18.52065],
            [73.85750, 18.52065],
            [73.85750, 18.52095],
            [73.85710, 18.52095],
            [73.85710, 18.52065]
          ]
        ]
      }
    },
    {
      "type": "Feature",
      "id": "BLD-PUN-00029",
      "properties": {
        "buildingId": "BLD-PUN-00029",
        "name": "Kothrud Urban Civic Center",
        "building": "commercial",
        "height": 28.0,
        "heightSource": "Estimated / Demo",
        "buildingLevels": 8,
        "source": "OpenStreetMap — Building Footprints",
        "osmId": "way/892147103"
      },
      "geometry": {
        "type": "Polygon",
        "coordinates": [
          [
            [73.85565, 18.52090],
            [73.85615, 18.52090],
            [73.85615, 18.52130],
            [73.85565, 18.52130],
            [73.85565, 18.52090]
          ]
        ]
      }
    },
    {
      "type": "Feature",
      "id": "BLD-PUN-00030",
      "properties": {
        "buildingId": "BLD-PUN-00030",
        "name": "Shivaji Park Commercial Complex",
        "building": "commercial",
        "height": 36.5,
        "heightSource": "Estimated / Demo",
        "buildingLevels": 11,
        "source": "OpenStreetMap — Building Footprints",
        "osmId": "way/892147104"
      },
      "geometry": {
        "type": "Polygon",
        "coordinates": [
          [
            [73.85755, 18.51950],
            [73.85805, 18.51950],
            [73.85805, 18.51990],
            [73.85755, 18.51990],
            [73.85755, 18.51950]
          ]
        ]
      }
    },
    {
      "type": "Feature",
      "id": "BLD-PUN-00031",
      "properties": {
        "buildingId": "BLD-PUN-00031",
        "name": "Prabhat Residency Block 1",
        "building": "residential",
        "height": 22.0,
        "heightSource": "Estimated / Demo",
        "buildingLevels": 7,
        "source": "OpenStreetMap — Building Footprints",
        "osmId": "way/892147105"
      },
      "geometry": {
        "type": "Polygon",
        "coordinates": [
          [
            [73.85540, 18.51940],
            [73.85580, 18.51940],
            [73.85580, 18.51980],
            [73.85540, 18.51980],
            [73.85540, 18.51940]
          ]
        ]
      }
    },
    {
      "type": "Feature",
      "id": "BLD-PUN-00032",
      "properties": {
        "buildingId": "BLD-PUN-00032",
        "name": "Prabhat Residency Block 2",
        "building": "residential",
        "height": 22.0,
        "heightSource": "Estimated / Demo",
        "buildingLevels": 7,
        "source": "OpenStreetMap — Building Footprints",
        "osmId": "way/892147106"
      },
      "geometry": {
        "type": "Polygon",
        "coordinates": [
          [
            [73.85500, 18.51900],
            [73.85540, 18.51900],
            [73.85540, 18.51940],
            [73.85500, 18.51940],
            [73.85500, 18.51900]
          ]
        ]
      }
    },
    {
      "type": "Feature",
      "id": "BLD-PUN-00033",
      "properties": {
        "buildingId": "BLD-PUN-00033",
        "name": "Apex Medical Center",
        "building": "hospital",
        "height": 18.5,
        "heightSource": "Estimated / Demo",
        "buildingLevels": 5,
        "source": "OpenStreetMap — Building Footprints",
        "osmId": "way/892147107"
      },
      "geometry": {
        "type": "Polygon",
        "coordinates": [
          [
            [73.85800, 18.52120],
            [73.85845, 18.52120],
            [73.85845, 18.52160],
            [73.85800, 18.52160],
            [73.85800, 18.52120]
          ]
        ]
      }
    },
    {
      "type": "Feature",
      "id": "BLD-PUN-00034",
      "properties": {
        "buildingId": "BLD-PUN-00034",
        "name": "Saraswati Educational Wing",
        "building": "school",
        "height": 15.0,
        "heightSource": "Estimated / Demo",
        "buildingLevels": 4,
        "source": "OpenStreetMap — Building Footprints",
        "osmId": "way/892147108"
      },
      "geometry": {
        "type": "Polygon",
        "coordinates": [
          [
            [73.85610, 18.51860],
            [73.85655, 18.51860],
            [73.85655, 18.51900],
            [73.85610, 18.51900],
            [73.85610, 18.51860]
          ]
        ]
      }
    },
    {
      "type": "Feature",
      "id": "BLD-PUN-00035",
      "properties": {
        "buildingId": "BLD-PUN-00035",
        "name": "Riverside Corporate Tower",
        "building": "commercial",
        "height": 52.0,
        "heightSource": "Estimated / Demo",
        "buildingLevels": 16,
        "source": "OpenStreetMap — Building Footprints",
        "osmId": "way/892147109"
      },
      "geometry": {
        "type": "Polygon",
        "coordinates": [
          [
            [73.85850, 18.52040],
            [73.85895, 18.52040],
            [73.85895, 18.52085],
            [73.85850, 18.52085],
            [73.85850, 18.52040]
          ]
        ]
      }
    }
  ]
}
